{
  "type": "FeatureCollection",
  "features": [
    {
      "type": "Feature",
      "properties": {
        "norad_id": 44793,
        "name": "BEIDOU-3 M22 (C44)",
        "group": "beidou",
        "lat": 50.87368655102763,
        "lon": 9.51696583381641,
        "alt_km": 21511.989447546875,
        "timestamp": "2025-12-03T04:52:29.902553+00:00",
        "meta_object_name": "BEIDOU-3 M22 (C44)",
        "meta_object_id": "2019-078A",
        "meta_epoch": "2025-12-02T00:28:58.554624",
        "meta_mean_motion": 1.86231817,
        "meta_eccentricity": 0.00056333,
        "meta_inclination": 54.1183,
        "meta_ra_of_asc_node": 306.7625,
        "meta_arg_of_pericenter": 22.616,
        "meta_mean_anomaly": 337.398,
        "meta_ephemeris_type": 0,
        "meta_classification_type": "U",
        "meta_norad_cat_id": 44793,
        "meta_element_set_no": 999,
        "meta_rev_at_epoch": 4097,
        "meta_bstar": 0,
        "meta_mean_motion_dot": -6.1e-07,
        "meta_mean_motion_ddot": 0,
        "tle_line1": "1 44793U 19078A   25336.02012216 -.00000061  00000+0  00000+0 0  9991",
        "tle_line2": "2 44793  54.1183 306.7625 0005633  22.6160 337.3980  1.86231817 40974"
      },
      "geometry": {
        "type": "Point",
        "coordinates": [
          9.51696583381641,
          50.87368655102763
        ]
      }
    },
    {
      "type": "Feature",
      "properties": {
        "norad_id": 44794,
        "name": "BEIDOU-3 M21 (C43)",
        "group": "beidou",
        "lat": -15.300947525568832,
        "lon": -64.76421361517116,
        "alt_km": 21521.149627225113,
        "timestamp": "2025-12-03T04:52:29.902578+00:00",
        "meta_object_name": "BEIDOU-3 M21 (C43)",
        "meta_object_id": "2019-078B",
        "meta_epoch": "2025-12-01T02:00:26.030304",
        "meta_mean_motion": 1.86227539,
        "meta_eccentricity": 0.00038706,
        "meta_inclination": 54.0922,
        "meta_ra_of_asc_node": 306.7607,
        "meta_arg_of_pericenter": 10.0971,
        "meta_mean_anomaly": 349.9036,
        "meta_ephemeris_type": 0,
        "meta_classification_type": "U",
        "meta_norad_cat_id": 44794,
        "meta_element_set_no": 999,
        "meta_rev_at_epoch": 4096,
        "meta_bstar": 0,
        "meta_mean_motion_dot": -5.7e-07,
        "meta_mean_motion_ddot": 0,
        "tle_line1": "1 44794U 19078B   25335.08363461 -.00000057  00000+0  00000+0 0  9993",
        "tle_line2": "2 44794  54.0922 306.7607 0003870  10.0971 349.9036  1.86227539 40963"
      },
      "geometry": {
        "type": "Point",
        "coordinates": [
          -64.76421361517116,
          -15.300947525568832
        ]
      }
    },
    {
      "type": "Feature",
      "properties": {
        "norad_id": 44864,
        "name": "BEIDOU-3 M19 (C41)",
        "group": "beidou",
        "lat": 2.8979733092719226,
        "lon": -112.64808750603889,
        "alt_km": 21543.241265383036,
        "timestamp": "2025-12-03T04:52:29.902592+00:00",
        "meta_object_name": "BEIDOU-3 M19 (C41)",
        "meta_object_id": "2019-090A",
        "meta_epoch": "2025-12-01T20:54:26.017344",
        "meta_mean_motion": 1.86231094,
        "meta_eccentricity": 0.00175122,
        "meta_inclination": 56.3837,
        "meta_ra_of_asc_node": 69.3227,
        "meta_arg_of_pericenter": 284.7988,
        "meta_mean_anomaly": 78.8343,
        "meta_ephemeris_type": 0,
        "meta_classification_type": "U",
        "meta_norad_cat_id": 44864,
        "meta_element_set_no": 999,
        "meta_rev_at_epoch": 4056,
        "meta_bstar": 0,
        "meta_mean_motion_dot": -4.4e-07,
        "meta_mean_motion_ddot": 0,
        "tle_line1": "1 44864U 19090A   25335.87113446 -.00000044  00000+0  00000+0 0  9994",
        "tle_line2": "2 44864  56.3837  69.3227 0017512 284.7988  78.8343  1.86231094 40563"
      },
      "geometry": {
        "type": "Point",
        "coordinates": [
          -112.64808750603889,
          2.8979733092719226
        ]
      }
    },
    {
      "type": "Feature",
      "properties": {
        "norad_id": 44865,
        "name": "BEIDOU-3 M20 (C42)",
        "group": "beidou",
        "lat": -56.221165097265256,
        "lon": -27.50857281054652,
        "alt_km": 21499.14383026249,
        "timestamp": "2025-12-03T04:52:29.902604+00:00",
        "meta_object_name": "BEIDOU-3 M20 (C42)",
        "meta_object_id": "2019-090B",
        "meta_epoch": "2025-12-02T19:15:49.919904",
        "meta_mean_motion": 1.86231044,
        "meta_eccentricity": 0.0014683,
        "meta_inclination": 56.3861,
        "meta_ra_of_asc_node": 69.3259,
        "meta_arg_of_pericenter": 297.6742,
        "meta_mean_anomaly": 60.1134,
        "meta_ephemeris_type": 0,
        "meta_classification_type": "U",
        "meta_norad_cat_id": 44865,
        "meta_element_set_no": 999,
        "meta_rev_at_epoch": 4055,
        "meta_bstar": 0,
        "meta_mean_motion_dot": -4.8e-07,
        "meta_mean_motion_ddot": 0,
        "tle_line1": "1 44865U 19090B   25336.80266111 -.00000048  00000+0  00000+0 0  9991",
        "tle_line2": "2 44865  56.3861  69.3259 0014683 297.6742  60.1134  1.86231044 40559"
      },
      "geometry": {
        "type": "Point",
        "coordinates": [
          -27.50857281054652,
          -56.221165097265256
        ]
      }
    },
    {
      "type": "Feature",
      "properties": {
        "norad_id": 45344,
        "name": "BEIDOU-3 G2 (C60)",
        "group": "beidou",
        "lat": -0.12029893230271813,
        "lon": -134.60048339967128,
        "alt_km": 35783.69176865694,
        "timestamp": "2025-12-03T04:52:29.902616+00:00",
        "meta_object_name": "BEIDOU-3 G2 (C60)",
        "meta_object_id": "2020-017A",
        "meta_epoch": "2025-12-02T20:23:54.777120",
        "meta_mean_motion": 1.00270362,
        "meta_eccentricity": 0.0004575,
        "meta_inclination": 2.9813,
        "meta_ra_of_asc_node": 43.5541,
        "meta_arg_of_pericenter": 263.6834,
        "meta_mean_anomaly": 150.7452,
        "meta_ephemeris_type": 0,
        "meta_classification_type": "U",
        "meta_norad_cat_id": 45344,
        "meta_element_set_no": 999,
        "meta_rev_at_epoch": 2129,
        "meta_bstar": 0,
        "meta_mean_motion_dot": -1.23e-06,
        "meta_mean_motion_ddot": 0,
        "tle_line1": "1 45344U 20017A   25336.84993955 -.00000123  00000+0  00000+0 0  9996",
        "tle_line2": "2 45344   2.9813  43.5541 0004575 263.6834 150.7452  1.00270362 21299"
      },
      "geometry": {
        "type": "Point",
        "coordinates": [
          -134.60048339967128,
          -0.12029893230271813
        ]
      }
    },
    {
      "type": "Feature",
      "properties": {
        "norad_id": 45807,
        "name": "BEIDOU-3 G3 (C61)",
        "group": "beidou",
        "lat": -0.34204350858046884,
        "lon": -104.14629836333165,
        "alt_km": 35796.85955383048,
        "timestamp": "2025-12-03T04:52:29.902628+00:00",
        "meta_object_name": "BEIDOU-3 G3 (C61)",
        "meta_object_id": "2020-040A",
        "meta_epoch": "2025-12-02T16:32:21.615648",
        "meta_mean_motion": 1.00266999,
        "meta_eccentricity": 0.00049779,
        "meta_inclination": 1.9649,
        "meta_ra_of_asc_node": 66.5165,
        "meta_arg_of_pericenter": 305.4436,
        "meta_mean_anomaly": 58.4408,
        "meta_ephemeris_type": 0,
        "meta_classification_type": "U",
        "meta_norad_cat_id": 45807,
        "meta_element_set_no": 999,
        "meta_rev_at_epoch": 2010,
        "meta_bstar": 0,
        "meta_mean_motion_dot": -3.34e-06,
        "meta_mean_motion_ddot": 0,
        "tle_line1": "1 45807U 20040A   25336.68913907 -.00000334  00000+0  00000+0 0  9991",
        "tle_line2": "2 45807   1.9649  66.5165 0004977 305.4436  58.4408  1.00266999 20100"
      },
      "geometry": {
        "type": "Point",
        "coordinates": [
          -104.14629836333165,
          -0.34204350858046884
        ]
      }
    },
    {
      "type": "Feature",
      "properties": {
        "norad_id": 56564,
        "name": "BEIDOU-3 G4 (C62)",
        "group": "beidou",
        "lat": 0.05991259739845524,
        "lon": -54.509999765930104,
        "alt_km": 35795.31021764236,
        "timestamp": "2025-12-03T04:52:29.902640+00:00",
        "meta_object_name": "BEIDOU-3 G4 (C62)",
        "meta_object_id": "2023-066A",
        "meta_epoch": "2025-12-02T19:08:10.347936",
        "meta_mean_motion": 1.00270999,
        "meta_eccentricity": 0.0003368,
        "meta_inclination": 0.8384,
        "meta_ra_of_asc_node": 301.1878,
        "meta_arg_of_pericenter": 234.5101,
        "meta_mean_anomaly": 343.3115,
        "meta_ephemeris_type": 0,
        "meta_classification_type": "U",
        "meta_norad_cat_id": 56564,
        "meta_element_set_no": 999,
        "meta_rev_at_epoch": 942,
        "meta_bstar": 0,
        "meta_mean_motion_dot": -9.1e-07,
        "meta_mean_motion_ddot": 0,
        "tle_line1": "1 56564U 23066A   25336.79734199 -.00000091  00000+0  00000+0 0  9990",
        "tle_line2": "2 56564   0.8384 301.1878 0003368 234.5101 343.3115  1.00270999  9427"
      },
      "geometry": {
        "type": "Point",
        "coordinates": [
          -54.509999765930104,
          0.05991259739845524
        ]
      }
    }
  ]
}